0 SL-3 R/B
1 12904U 81103B   13282.84831287  .00001205  00000-0  91085-4 0  3333
2 12904 081.1817 009.7577 0031140 165.0902 195.1245 15.01274909290478
0 SL-3 R/B
1 12904U 81103B   13284.18132790  .00001293  00000-0  97824-4 0  3340
2 12904 081.1817 008.2455 0031218 160.8234 199.4170 15.01281231290676
0 SL-3 R/B
1 12904U 81103B   13285.51433457  .00001390  00000-0  10534-3 0  3353
2 12904 081.1824 006.7335 0031172 156.5601 203.7049 15.01283222290871
0 SL-3 R/B
1 12904U 81103B   13286.78068838  .00001220  00000-0  92179-4 0  3369
2 12904 081.1814 005.2967 0031386 152.4172 207.8723 15.01286729291061
0 SL-3 R/B
1 12904U 81103B   13288.18033859  .00001977  00000-0  15042-3 0  3373
2 12904 081.1811 003.7089 0031442 147.8914 212.4230 15.01293005291274
0 SL-3 R/B
1 12904U 81103B   13289.51333269  .00001940  00000-0  14760-3 0  3386
2 12904 081.1816 002.1970 0031457 143.4023 216.9356 15.01295953291474
0 SL-3 R/B
1 12904U 81103B   13290.71302508  .00002028  00000-0  15432-3 0  3398
2 12904 081.1810 000.8359 0031471 139.5352 220.8218 15.01298916291654
0 SL-3 R/B
1 12904U 81103B   13292.17931120  .00002134  00000-0  16246-3 0  3402
2 12904 081.1804 359.1717 0031441 135.2842 225.0922 15.01303288291871
0 SL-3 R/B
1 12904U 81103B   13293.51229590  .00002097  00000-0  15957-3 0  3419
2 12904 081.1803 357.6591 0031473 131.1108 229.2838 15.01310412292070
0 SL-3 R/B
1 12904U 81103B   13294.77862712  .00001885  00000-0  14324-3 0  3429
2 12904 081.1802 356.2221 0031542 127.1320 233.2790 15.01317971292262
0 SL-3 R/B
1 12904U 81103B   13295.84500651  .00001644  00000-0  12471-3 0  3434
2 12904 081.1801 355.0121 0031596 123.7804 236.6434 15.01323111292428
